{"type": "FeatureCollection", "features": [ {"type": "Feature", "properties": {"norad_id": 37971, "name": "COSMOS 2251 DEB", "group": "cosmos-2251-debris", "lat": 6.013665758067797, "lon": 17.49007955910135, "alt_km": 769.8823274772221, "timestamp": "2025-12-26T13:39:19.377989+00:00", "meta": {"OBJECT_NAME": "COSMOS 2251 DEB", "OBJECT_ID": "1993-036BPW", "EPOCH": "2025-12-21T19:16:34.897152", "MEAN_MOTION": 14.48757325, "ECCENTRICITY": 0.00659406, "INCLINATION": 73.9924, "RA_OF_ASC_NODE": 24.7096, "ARG_OF_PERICENTER": 161.9609, "MEAN_ANOMALY": 198.3914, "EPHEMERIS_TYPE": 0, "CLASSIFICATION_TYPE": "U", "NORAD_CAT_ID": 37971, "ELEMENT_SET_NO": 999, "REV_AT_EPOCH": 60809, "BSTAR": 0.0013046337, "MEAN_MOTION_DOT": 5.035e-05, "MEAN_MOTION_DDOT": 0}, "tle": {"line1": "1 37971U 93036BPW 25355.80318168  .00005035  00000+0  13046-2 0  9991", "line2": "2 37971  73.9924  24.7096 0065940 161.9609 198.3914 14.48757325608091"}}, "geometry": {"type": "Point", "coordinates": [17.49007955910135, 6.013665758067797]}}, {"type": "Feature", "properties": {"norad_id": 37975, "name": "COSMOS 2251 DEB", "group": "cosmos-2251-debris", "lat": -9.30483619028631, "lon": 119.61639785104798, "alt_km": 647.0953572500666, "timestamp": "2025-12-26T13:39:19.378000+00:00", "meta": {"OBJECT_NAME": "COSMOS 2251 DEB", "OBJECT_ID": "1993-036BQA", "EPOCH": "2025-12-24T13:38:18.210912", "MEAN_MOTION": 14.76642504, "ECCENTRICITY": 0.00942439, "INCLINATION": 74.0025, "RA_OF_ASC_NODE": 300.8495, "ARG_OF_PERICENTER": 287.7537, "MEAN_ANOMALY": 71.3369, "EPHEMERIS_TYPE": 0, "CLASSIFICATION_TYPE": "U", "NORAD_CAT_ID": 37975, "ELEMENT_SET_NO": 999, "REV_AT_EPOCH": 69920, "BSTAR": 0.0036103843, "MEAN_MOTION_DOT": 0.00027223, "MEAN_MOTION_DDOT": 0}, "tle": {"line1": "1 37975U 93036BQA 25358.56826633  .00027223  00000+0  36104-2 0  9995", "line2": "2 37975  74.0025 300.8495 0094243 287.7537  71.3369 14.76642504699205"}}, "geometry": {"type": "Point", "coordinates": [119.61639785104798, -9.30483619028631]}}, {"type": "Feature", "properties": {"norad_id": 37985, "name": "COSMOS 2251 DEB", "group": "cosmos-2251-debris", "lat": 21.595603111649535, "lon": -113.13331335187448, "alt_km": 758.8629651250867, "timestamp": "2025-12-26T13:39:19.378011+00:00", "meta": {"OBJECT_NAME": "COSMOS 2251 DEB", "OBJECT_ID": "1993-036BQL", "EPOCH": "2025-12-24T23:04:55.384032", "MEAN_MOTION": 14.3548661, "ECCENTRICITY": 0.00213169, "INCLINATION": 74.0246, "RA_OF_ASC_NODE": 243.3046, "ARG_OF_PERICENTER": 2.8106, "MEAN_ANOMALY": 357.3162, "EPHEMERIS_TYPE": 0, "CLASSIFICATION_TYPE": "U", "NORAD_CAT_ID": 37985, "ELEMENT_SET_NO": 999, "REV_AT_EPOCH": 65092, "BSTAR": 4.6643304e-05, "MEAN_MOTION_DOT": 1.08e-06, "MEAN_MOTION_DDOT": 0}, "tle": {"line1": "1 37985U 93036BQL 25358.96175213  .00000108  00000+0  46643-4 0  9995", "line2": "2 37985  74.0246 243.3046 0021316   2.8106 357.3162 14.35486610650926"}}, "geometry": {"type": "Point", "coordinates": [-113.13331335187448, 21.595603111649535]}}, {"type": "Feature", "properties": {"norad_id": 37988, "name": "COSMOS 2251 DEB", "group": "cosmos-2251-debris", "lat": -61.96384118189617, "lon": -150.24234232588282, "alt_km": 707.4266558406262, "timestamp": "2025-12-26T13:39:19.378021+00:00", "meta": {"OBJECT_NAME": "COSMOS 2251 DEB", "OBJECT_ID": "1993-036BQP", "EPOCH": "2025-12-19T02:22:34.688640", "MEAN_MOTION": 14.6891967, "ECCENTRICITY": 0.00635463, "INCLINATION": 74.062, "RA_OF_ASC_NODE": 11.7337, "ARG_OF_PERICENTER": 47.3595, "MEAN_ANOMALY": 313.2907, "EPHEMERIS_TYPE": 0, "CLASSIFICATION_TYPE": "U", "NORAD_CAT_ID": 37988, "ELEMENT_SET_NO": 999, "REV_AT_EPOCH": 23489, "BSTAR": 0.00064166354, "MEAN_MOTION_DOT": 3.842e-05, "MEAN_MOTION_DDOT": 0}, "tle": {"line1": "1 37988U 93036BQP 25353.09901260  .00003842  00000+0  64166-3 0  9993", "line2": "2 37988  74.0620  11.7337 0063546  47.3595 313.2907 14.68919670234897"}}, "geometry": {"type": "Point", "coordinates": [-150.24234232588282, -61.96384118189617]}}, {"type": "Feature", "properties": {"norad_id": 37993, "name": "COSMOS 2251 DEB", "group": "cosmos-2251-debris", "lat": -55.87642451586509, "lon": 115.49545152504352, "alt_km": 695.4177147044029, "timestamp": "2025-12-26T13:39:19.378031+00:00", "meta": {"OBJECT_NAME": "COSMOS 2251 DEB", "OBJECT_ID": "1993-036BQU", "EPOCH": "2025-12-17T04:37:52.855104", "MEAN_MOTION": 14.59966404, "ECCENTRICITY": 0.00218755, "INCLINATION": 74.021, "RA_OF_ASC_NODE": 158.4097, "ARG_OF_PERICENTER": 246.7183, "MEAN_ANOMALY": 113.168, "EPHEMERIS_TYPE": 0, "CLASSIFICATION_TYPE": "U", "NORAD_CAT_ID": 37993, "ELEMENT_SET_NO": 999, "REV_AT_EPOCH": 65382, "BSTAR": 0.0010496489, "MEAN_MOTION_DOT": 5.024e-05, "MEAN_MOTION_DDOT": 0}, "tle": {"line1": "1 37993U 93036BQU 25351.19297286  .00005024  00000+0  10496-2 0  9994", "line2": "2 37993  74.0210 158.4097 0021875 246.7183 113.1680 14.59966404653827"}}, "geometry": {"type": "Point", "coordinates": [115.49545152504352, -55.87642451586509]}}, {"type": "Feature", "properties": {"norad_id": 37994, "name": "COSMOS 2251 DEB", "group": "cosmos-2251-debris", "lat": 73.03866197046102, "lon": 0.33852555161695874, "alt_km": 762.6947916229601, "timestamp": "2025-12-26T13:39:19.378041+00:00", "meta": {"OBJECT_NAME": "COSMOS 2251 DEB", "OBJECT_ID": "1993-036BQV", "EPOCH": "2025-12-26T03:12:22.060224", "MEAN_MOTION": 14.39651929, "ECCENTRICITY": 0.00234295, "INCLINATION": 74.0356, "RA_OF_ASC_NODE": 250.9558, "ARG_OF_PERICENTER": 328.0941, "MEAN_ANOMALY": 31.8793, "EPHEMERIS_TYPE": 0, "CLASSIFICATION_TYPE": "U", "NORAD_CAT_ID": 37994, "ELEMENT_SET_NO": 999, "REV_AT_EPOCH": 77257, "BSTAR": 0.00030846767, "MEAN_MOTION_DOT": 9.41e-06, "MEAN_MOTION_DDOT": 0}, "tle": {"line1": "1 37994U 93036BQV 25360.13358866  .00000941  00000+0  30847-3 0  9997", "line2": "2 37994  74.0356 250.9558 0023429 328.0941  31.8793 14.39651929772578"}}, "geometry": {"type": "Point", "coordinates": [0.33852555161695874, 73.03866197046102]}}, {"type": "Feature", "properties": {"norad_id": 37998, "name": "COSMOS 2251 DEB", "group": "cosmos-2251-debris", "lat": -64.93270356688663, "lon": 171.58780933989743, "alt_km": 732.9863006771438, "timestamp": "2025-12-26T13:39:19.378051+00:00", "meta": {"OBJECT_NAME": "COSMOS 2251 DEB", "OBJECT_ID": "1993-036BQZ", "EPOCH": "2025-12-19T00:55:56.823168", "MEAN_MOTION": 14.45502343, "ECCENTRICITY": 0.00202427, "INCLINATION": 74.0345, "RA_OF_ASC_NODE": 223.3597, "ARG_OF_PERICENTER": 295.5973, "MEAN_ANOMALY": 64.3093, "EPHEMERIS_TYPE": 0, "CLASSIFICATION_TYPE": "U", "NORAD_CAT_ID": 37998, "ELEMENT_SET_NO": 999, "REV_AT_EPOCH": 64378, "BSTAR": 0.00035299512, "MEAN_MOTION_DOT": 1.221e-05, "MEAN_MOTION_DDOT": 0}, "tle": {"line1": "1 37998U 93036BQZ 25353.03885212  .00001221  00000+0  35300-3 0  9993", "line2": "2 37998  74.0345 223.3597 0020242 295.5973  64.3093 14.45502343643786"}}, "geometry": {"type": "Point", "coordinates": [171.58780933989743, -64.93270356688663]}}, {"type": "Feature", "properties": {"norad_id": 38001, "name": "COSMOS 2251 DEB", "group": "cosmos-2251-debris", "lat": 56.038752583551116, "lon": -100.1480948811551, "alt_km": 656.3534635269625, "timestamp": "2025-12-26T13:39:19.378061+00:00", "meta": {"OBJECT_NAME": "COSMOS 2251 DEB", "OBJECT_ID": "1993-036BRC", "EPOCH": "2025-12-26T06:45:30.906144", "MEAN_MOTION": 14.79238108, "ECCENTRICITY": 0.00653706, "INCLINATION": 74.0014, "RA_OF_ASC_NODE": 105.6313, "ARG_OF_PERICENTER": 252.6722, "MEAN_ANOMALY": 138.5289, "EPHEMERIS_TYPE": 0, "CLASSIFICATION_TYPE": "U", "NORAD_CAT_ID": 38001, "ELEMENT_SET_NO": 999, "REV_AT_EPOCH": 74908, "BSTAR": 0.00092588003, "MEAN_MOTION_DOT": 7.103e-05, "MEAN_MOTION_DDOT": 0}, "tle": {"line1": "1 38001U 93036BRC 25360.28160771  .00007103  00000+0  92588-3 0  9996", "line2": "2 38001  74.0014 105.6313 0065370 252.6722 138.5289 14.79238108749083"}}, "geometry": {"type": "Point", "coordinates": [-100.1480948811551, 56.038752583551116]}}, {"type": "Feature", "properties": {"norad_id": 38006, "name": "COSMOS 2251 DEB", "group": "cosmos-2251-debris", "lat": 53.316969119674674, "lon": 169.14605852339764, "alt_km": 784.6640167974319, "timestamp": "2025-12-26T13:39:19.378071+00:00", "meta": {"OBJECT_NAME": "COSMOS 2251 DEB", "OBJECT_ID": "1993-036BRH", "EPOCH": "2025-12-10T03:36:37.956384", "MEAN_MOTION": 14.45867865, "ECCENTRICITY": 0.00758537, "INCLINATION": 73.8744, "RA_OF_ASC_NODE": 42.933, "ARG_OF_PERICENTER": 348.3853, "MEAN_ANOMALY": 11.555, "EPHEMERIS_TYPE": 0, "CLASSIFICATION_TYPE": "U", "NORAD_CAT_ID": 38006, "ELEMENT_SET_NO": 999, "REV_AT_EPOCH": 62922, "BSTAR": 0.0047338847, "MEAN_MOTION_DOT": 0.00017443, "MEAN_MOTION_DDOT": 0}, "tle": {"line1": "1 38006U 93036BRH 25344.15043931  .00017443  00000+0  47339-2 0  9998", "line2": "2 38006  73.8744  42.9330 0075853 348.3853  11.5550 14.45867865629227"}}, "geometry": {"type": "Point", "coordinates": [169.14605852339764, 53.316969119674674]}}, {"type": "Feature", "properties": {"norad_id": 38054, "name": "COSMOS 2251 DEB", "group": "cosmos-2251-debris", "lat": 29.55781548570237, "lon": -107.44393584443068, "alt_km": 1287.039350557283, "timestamp": "2025-12-26T13:39:19.378082+00:00", "meta": {"OBJECT_NAME": "COSMOS 2251 DEB", "OBJECT_ID": "1993-036BRL", "EPOCH": "2025-12-25T03:01:07.010112", "MEAN_MOTION": 13.62393869, "ECCENTRICITY": 0.03570212, "INCLINATION": 73.9517, "RA_OF_ASC_NODE": 245.5222, "ARG_OF_PERICENTER": 221.1559, "MEAN_ANOMALY": 293.5582, "EPHEMERIS_TYPE": 0, "CLASSIFICATION_TYPE": "U", "NORAD_CAT_ID": 38054, "ELEMENT_SET_NO": 999, "REV_AT_EPOCH": 67348, "BSTAR": 0.0017292358, "MEAN_MOTION_DOT": 2.033e-05, "MEAN_MOTION_DDOT": 0}, "tle": {"line1": "1 38054U 93036BRL 25359.12577558  .00002033  00000+0  17292-2 0  9995", "line2": "2 38054  73.9517 245.5222 0357021 221.1559 293.5582 13.62393869673481"}}, "geometry": {"type": "Point", "coordinates": [-107.44393584443068, 29.55781548570237]}}]}